STARLINK-31749          
1 59631U 24082A   26068.21775102 -.00001582  00000+0 -47966-4 0  9990
2 59631  43.0051 142.1439 0001315 265.9053  94.1648 15.27576194104940
FLOCK 4G-26             
1 62633U 25009AA  26068.80489479  .00011283  00000+0  42469-3 0  9999
2 62633  97.4054 151.3913 0001988 299.1273  60.9767 15.27281631 63733
